start=new Date('2023-03-16T00:00:00.000Z').valueOf();
sats=[{"SEMIMAJOR_AXIS":"6925.213","ARG_OF_PERICENTER":"96.5216","MEAN_MOTION_DOT":"-0.00004038","ELEMENT_SET_NO":"999","CLASSIFICATION_TYPE":"U","REV_AT_EPOCH":"17049","ECCENTRICITY":"0.00014280","TIME_SYSTEM":"UTC","PERIOD":"95.589","RA_OF_ASC_NODE":"260.6106","DECAY_DATE":null,"GP_ID":"228145584","NORAD_CAT_ID":"45234","FILE":"3861350","INCLINATION":"53.0520","EPOCH":"2023-03-15T12:18:28.765152","MEAN_MOTION":"15.06444106","OBJECT_ID":"2020-012BJ","COUNTRY_CODE":"US","REF_FRAME":"TEME","MEAN_MOTION_DDOT":"0.0000000000000","MEAN_ANOMALY":"263.5936","BSTAR":"-0.00025204000000","TLE_LINE2":"2 45234  53.0520 260.6106 0001428  96.5216 263.5936 15.06444106170496","APOAPSIS":"548.067","LAUNCH_DATE":"2020-02-17","OBJECT_NAME":"STARLINK-1243","MEAN_ELEMENT_THEORY":"SGP4","OBJECT_TYPE":"PAYLOAD","CENTER_NAME":"EARTH","RCS_SIZE":"LARGE","SITE":"AFETR","PERIAPSIS":"546.089","EPHEMERIS_TYPE":"0","TLE_LINE1":"1 45234U 20012BJ  23074.51283293 -.00004038  00000-0 -25204-3 0  9995"},{"EPHEMERIS_TYPE":"0","SITE":"AFETR","PERIAPSIS":"546.319","OBJECT_TYPE":"PAYLOAD","MEAN_ELEMENT_THEORY":"SGP4","RCS_SIZE":"LARGE","CENTER_NAME":"EARTH","TLE_LINE1":"1 45235U 20012BK  23074.89617986 -.00002871  00000-0 -17400-3 0  9999","OBJECT_ID":"2020-012BK","MEAN_MOTION":"15.06390142","REF_FRAME":"TEME","COUNTRY_CODE":"US","EPOCH":"2023-03-15T21:30:29.939904","TLE_LINE2":"2 45235  53.0517 258.8914 0001336  80.5023 279.6116 15.06390142170607","LAUNCH_DATE":"2020-02-17","OBJECT_NAME":"STARLINK-1246","APOAPSIS":"548.169","MEAN_MOTION_DDOT":"0.0000000000000","BSTAR":"-0.00017400000000","MEAN_ANOMALY":"279.6116","DECAY_DATE":null,"PERIOD":"95.593","RA_OF_ASC_NODE":"258.8914","INCLINATION":"53.0517","NORAD_CAT_ID":"45235","FILE":"3861599","GP_ID":"228205232","MEAN_MOTION_DOT":"-0.00002871","ELEMENT_SET_NO":"999","SEMIMAJOR_AXIS":"6925.379","ARG_OF_PERICENTER":"80.5023","TIME_SYSTEM":"UTC","ECCENTRICITY":"0.00013360","CLASSIFICATION_TYPE":"U","REV_AT_EPOCH":"17060"},{"MEAN_MOTION_DDOT":"0.0000000000000","MEAN_ANOMALY":"305.5470","BSTAR":"0.00231960000000","TLE_LINE2":"2 45236  53.0515 218.9742 0001448  54.5654 305.5470 15.06367436171138","APOAPSIS":"548.316","LAUNCH_DATE":"2020-02-17","OBJECT_NAME":"STARLINK-1247","EPOCH":"2023-03-15T21:03:57.838464","OBJECT_ID":"2020-012BL","MEAN_MOTION":"15.06367436","COUNTRY_CODE":"US","REF_FRAME":"TEME","TLE_LINE1":"1 45236U 20012BL  23074.87775276  .00034408  00000-0  23196-2 0  9992","MEAN_ELEMENT_THEORY":"SGP4","OBJECT_TYPE":"PAYLOAD","RCS_SIZE":"LARGE","CENTER_NAME":"EARTH","SITE":"AFETR","PERIAPSIS":"546.311","EPHEMERIS_TYPE":"0","CLASSIFICATION_TYPE":"U","REV_AT_EPOCH":"17113","ECCENTRICITY":"0.00014480","TIME_SYSTEM":"UTC","SEMIMAJOR_AXIS":"6925.448","ARG_OF_PERICENTER":"54.5654","MEAN_MOTION_DOT":"0.00034408","ELEMENT_SET_NO":"999","GP_ID":"228203981","NORAD_CAT_ID":"45236","FILE":"3861599","INCLINATION":"53.0515","PERIOD":"95.594","RA_OF_ASC_NODE":"218.9742","DECAY_DATE":null},{"LAUNCH_DATE":"2020-02-17","OBJECT_NAME":"STARLINK-1270","APOAPSIS":"548.652","TLE_LINE2":"2 45237  53.0520 220.9589 0002056  79.2457 280.8764 15.06395376171076","BSTAR":"0.00028392000000","MEAN_ANOMALY":"280.8764","MEAN_MOTION_DDOT":"0.0000000000000","REF_FRAME":"TEME","COUNTRY_CODE":"US","OBJECT_ID":"2020-012BM","MEAN_MOTION":"15.06395376","EPOCH":"2023-03-15T10:27:02.790144","TLE_LINE1":"1 45237U 20012BM  23074.43544896  .00003949  00000-0  28392-3 0  9997","EPHEMERIS_TYPE":"0","SITE":"AFETR","PERIAPSIS":"545.804","CENTER_NAME":"EARTH","RCS_SIZE":"LARGE","MEAN_ELEMENT_THEORY":"SGP4","OBJECT_TYPE":"PAYLOAD","TIME_SYSTEM":"UTC","ECCENTRICITY":"0.00020560","REV_AT_EPOCH":"17107","CLASSIFICATION_TYPE":"U","ELEMENT_SET_NO":"999","MEAN_MOTION_DOT":"0.00003949","ARG_OF_PERICENTER":"79.2457","SEMIMAJOR_AXIS":"6925.363","INCLINATION":"53.0520","FILE":"3861350","NORAD_CAT_ID":"45237","GP_ID":"228145833","DECAY_DATE":null,"RA_OF_ASC_NODE":"220.9589","PERIOD":"95.592"},{"TLE_LINE1":"1 45360U 20019A   23074.92478058 -.00003241  00000-0 -19876-3 0  9995","CENTER_NAME":"EARTH","RCS_SIZE":"LARGE","OBJECT_TYPE":"PAYLOAD","MEAN_ELEMENT_THEORY":"SGP4","SITE":"AFETR","PERIAPSIS":"545.728","EPHEMERIS_TYPE":"0","MEAN_ANOMALY":"223.9699","BSTAR":"-0.00019876000000","MEAN_MOTION_DDOT":"0.0000000000000","APOAPSIS":"548.709","LAUNCH_DATE":"2020-03-18","OBJECT_NAME":"STARLINK-1279","TLE_LINE2":"2 45360  53.0554 348.7586 0002152 136.1461 223.9699 15.06398424165885","EPOCH":"2023-03-15T22:11:41.042112","REF_FRAME":"TEME","COUNTRY_CODE":"US","MEAN_MOTION":"15.06398424","OBJECT_ID":"2020-019A","GP_ID":"228203494","FILE":"3861599","NORAD_CAT_ID":"45360","INCLINATION":"53.0554","RA_OF_ASC_NODE":"348.7586","PERIOD":"95.592","DECAY_DATE":null,"REV_AT_EPOCH":"16588","CLASSIFICATION_TYPE":"U","ECCENTRICITY":"0.00021520","TIME_SYSTEM":"UTC","ARG_OF_PERICENTER":"136.1461","SEMIMAJOR_AXIS":"6925.353","ELEMENT_SET_NO":"999","MEAN_MOTION_DOT":"-0.00003241"},{"REF_FRAME":"TEME","COUNTRY_CODE":"US","OBJECT_ID":"2020-019B","MEAN_MOTION":"15.06395657","EPOCH":"2023-03-15T20:18:52.660512","LAUNCH_DATE":"2020-03-18","OBJECT_NAME":"STARLINK-1301","APOAPSIS":"549.838","TLE_LINE2":"2 45361  53.0551 359.1119 0003770 171.3637 188.7417 15.06395657165740","BSTAR":"-0.00053820000000","MEAN_ANOMALY":"188.7417","MEAN_MOTION_DDOT":"0.0000000000000","EPHEMERIS_TYPE":"0","PERIAPSIS":"544.616","SITE":"AFETR","CENTER_NAME":"EARTH","RCS_SIZE":"LARGE","OBJECT_TYPE":"PAYLOAD","MEAN_ELEMENT_THEORY":"SGP4","TLE_LINE1":"1 45361U 20019B   23074.84644283 -.00008290  00000-0 -53820-3 0  9998","ELEMENT_SET_NO":"999","MEAN_MOTION_DOT":"-0.00008290","SEMIMAJOR_AXIS":"6925.362","ARG_OF_PERICENTER":"171.3637","TIME_SYSTEM":"UTC","ECCENTRICITY":"0.00037700","REV_AT_EPOCH":"16574","CLASSIFICATION_TYPE":"U","DECAY_DATE":null,"RA_OF_ASC_NODE":"359.1119","PERIOD":"95.592","INCLINATION":"53.0551","NORAD_CAT_ID":"45361","FILE":"3861599","GP_ID":"228204244"},{"INCLINATION":"53.0547","NORAD_CAT_ID":"45362","FILE":"3861599","GP_ID":"228204495","DECAY_DATE":null,"PERIOD":"95.593","RA_OF_ASC_NODE":"19.2010","TIME_SYSTEM":"UTC","ECCENTRICITY":"0.00017200","CLASSIFICATION_TYPE":"U","REV_AT_EPOCH":"16545","MEAN_MOTION_DOT":"-0.00000924","ELEMENT_SET_NO":"999","SEMIMAJOR_AXIS":"6925.413","ARG_OF_PERICENTER":"115.4646","TLE_LINE1":"1 45362U 20019C   23074.82617980 -.00000924  00000-0 -43135-4 0  9996","EPHEMERIS_TYPE":"0","SITE":"AFETR","PERIAPSIS":"546.087","OBJECT_TYPE":"PAYLOAD","MEAN_ELEMENT_THEORY":"SGP4","CENTER_NAME":"EARTH","RCS_SIZE":"LARGE","TLE_LINE2":"2 45362  53.0547  19.2010 0001720 115.4646 244.6521 15.06378839165451","LAUNCH_DATE":"2020-03-18","OBJECT_NAME":"STARLINK-1306","APOAPSIS":"548.470","MEAN_MOTION_DDOT":"0.0000000000000","BSTAR":"-0.00004313500000","MEAN_ANOMALY":"244.6521","MEAN_MOTION":"15.06378839","OBJECT_ID":"2020-019C","REF_FRAME":"TEME","COUNTRY_CODE":"US","EPOCH":"2023-03-15T19:49:41.934720"},{"EPOCH":"2023-03-15T03:47:27.503808","OBJECT_ID":"2020-019E","MEAN_MOTION":"15.12281275","REF_FRAME":"TEME","COUNTRY_CODE":"US","MEAN_MOTION_DDOT":"0.0000000000000","MEAN_ANOMALY":"237.4090","BSTAR":"0.00348100000000","TLE_LINE2":"2 45364  53.0545 350.4624 0001344 122.7031 237.4090 15.12281275165795","APOAPSIS":"530.175","LAUNCH_DATE":"2020-03-18","OBJECT_NAME":"STARLINK-1313","OBJECT_TYPE":"PAYLOAD","MEAN_ELEMENT_THEORY":"SGP4","RCS_SIZE":"LARGE","CENTER_NAME":"EARTH","SITE":"AFETR","PERIAPSIS":"528.318","EPHEMERIS_TYPE":"0","TLE_LINE1":"1 45364U 20019E   23074.15795722  .00061158  00000-0  34810-2 0  9997","SEMIMAJOR_AXIS":"6907.382","ARG_OF_PERICENTER":"122.7031","MEAN_MOTION_DOT":"0.00061158","ELEMENT_SET_NO":"999","CLASSIFICATION_TYPE":"U","REV_AT_EPOCH":"16579","ECCENTRICITY":"0.00013440","TIME_SYSTEM":"UTC","PERIOD":"95.220","RA_OF_ASC_NODE":"350.4624","DECAY_DATE":null,"GP_ID":"228146846","NORAD_CAT_ID":"45364","FILE":"3861350","INCLINATION":"53.0545"},{"ARG_OF_PERICENTER":"141.7267","SEMIMAJOR_AXIS":"6893.132","ELEMENT_SET_NO":"999","MEAN_MOTION_DOT":"0.00068317","REV_AT_EPOCH":"16575","CLASSIFICATION_TYPE":"U","ECCENTRICITY":"0.00053540","TIME_SYSTEM":"UTC","RA_OF_ASC_NODE":"353.7354","PERIOD":"94.926","DECAY_DATE":null,"GP_ID":"228203994","FILE":"3861599","NORAD_CAT_ID":"45365","INCLINATION":"52.9987","EPOCH":"2023-03-15T22:19:51.966912","REF_FRAME":"TEME","COUNTRY_CODE":"US","MEAN_MOTION":"15.16972990","OBJECT_ID":"2020-019F","MEAN_ANOMALY":"218.4107","BSTAR":"0.00340080000000","MEAN_MOTION_DDOT":"0.0000000000000","APOAPSIS":"518.688","OBJECT_NAME":"STARLINK-1317","LAUNCH_DATE":"2020-03-18","TLE_LINE2":"2 45365  52.9987 353.7354 0005354 141.7267 218.4107 15.16972990165756","RCS_SIZE":"LARGE","CENTER_NAME":"EARTH","OBJECT_TYPE":"PAYLOAD","MEAN_ELEMENT_THEORY":"SGP4","PERIAPSIS":"511.307","SITE":"AFETR","EPHEMERIS_TYPE":"0","TLE_LINE1":"1 45365U 20019F   23074.93046258  .00068317  00000-0  34008-2 0  9990"},{"DECAY_DATE":null,"PERIOD":"95.591","RA_OF_ASC_NODE":"21.6590","INCLINATION":"53.0549","FILE":"3861350","NORAD_CAT_ID":"45366","GP_ID":"228145846","MEAN_MOTION_DOT":"0.00047353","ELEMENT_SET_NO":"999","SEMIMAJOR_AXIS":"6925.308","ARG_OF_PERICENTER":"120.9229","TIME_SYSTEM":"UTC","ECCENTRICITY":"0.00014890","CLASSIFICATION_TYPE":"U","REV_AT_EPOCH":"16538","EPHEMERIS_TYPE":"0","PERIAPSIS":"546.141","SITE":"AFETR","OBJECT_TYPE":"PAYLOAD","MEAN_ELEMENT_THEORY":"SGP4","RCS_SIZE":"LARGE","CENTER_NAME":"EARTH","TLE_LINE1":"1 45366U 20019G   23074.28064143  .00047353  00000-0  31755-2 0  9995","OBJECT_ID":"2020-019G","MEAN_MOTION":"15.06413364","REF_FRAME":"TEME","COUNTRY_CODE":"US","EPOCH":"2023-03-15T06:44:07.419552","TLE_LINE2":"2 45366  53.0549  21.6590 0001489 120.9229 239.1907 15.06413364165389","LAUNCH_DATE":"2020-03-18","OBJECT_NAME":"STARLINK-1262","APOAPSIS":"548.204","MEAN_MOTION_DDOT":"0.0000000000000","BSTAR":"0.00317550000000","MEAN_ANOMALY":"239.1907"}];
